{
  "type": "FeatureCollection",
  "features": [
    {
      "type": "Feature",
      "properties": {
        "site_id": "angonap-fortaleza",
        "nome": "AngoNAP Fortaleza",
        "operador": "Angola Cables",
        "municipio": "Fortaleza",
        "uf": "CE",
        "lat": -3.734736,
        "lon": -38.462636,
        "buffer_km": 5,
        "fonte_coordenada": "https://www.peeringdb.com/api/fac/6702 (AngoNAP Fortaleza, PeeringDB fac id 6702)",
        "ano_inicio_operacao_estimado": 2019,
        "ativo": true,
        "tier": 1,
        "regiao": "Nordeste",
        "bioma": "Caatinga",
        "metodo_coordenada": "peeringdb",
        "precisao_coordenada": "exata",
        "data_consulta": "2026-09-01",
        "ano_inicio_obra": 2017,
        "periodo_pre": "2014-2016",
        "periodo_durante": "2017-2019",
        "periodo_pos": "2020-2025",
        "n_predios": 1,
        "v1_aprovado": true,
        "v2_aprovado": true,
        "v2_municipio_geocodificado": "Fortaleza",
        "v3_nao_aplicavel": false,
        "v3_aprovado": true,
        "v3_pct_construida_solo_500m": 100.0,
        "v3_ano_mapbiomas": 2023,
        "fila_visual": false,
        "motivo_fila_visual": null,
        "observacao": "Nível A. Cross-validado por OSM way 808900331 ('AngoNap Fortaleza', operador tag 'Angola Cables'), 0.11 km de distância. Endereço confere com a imprensa citada em SV-24 (Praia do Futuro, Fortaleza).",
        "v4_colisoes": null,
        "v4_aprovado": true,
        "v5_aprovado": null,
        "v5_distancia_km": null
      },
      "geometry": {
        "type": "Point",
        "coordinates": [
          -38.462636,
          -3.734736
        ]
      }
    },
    {
      "type": "Feature",
      "properties": {
        "site_id": "ascenty-hortolandia",
        "nome": "Ascenty Hortolândia (campus)",
        "operador": "Ascenty",
        "municipio": "Hortolândia",
        "uf": "SP",
        "lat": -22.896022,
        "lon": -47.179246,
        "buffer_km": 5,
        "fonte_coordenada": "https://www.peeringdb.com/api/fac/7586 (Ascenty HTL01 - Hortolândia, PeeringDB fac id 7586)",
        "ano_inicio_operacao_estimado": 2015,
        "ativo": true,
        "tier": 1,
        "regiao": "Sudeste",
        "bioma": "Mata Atlântica",
        "metodo_coordenada": "peeringdb",
        "precisao_coordenada": "exata",
        "data_consulta": "2026-09-01",
        "ano_inicio_obra": 2018,
        "periodo_pre": "2015-2017",
        "periodo_durante": "2018-2022",
        "periodo_pos": "2023-2025",
        "n_predios": 6,
        "v1_aprovado": true,
        "v2_aprovado": true,
        "v2_municipio_geocodificado": "Hortolândia",
        "v3_nao_aplicavel": false,
        "v3_aprovado": true,
        "v3_pct_construida_solo_500m": 68.69,
        "v3_ano_mapbiomas": 2023,
        "fila_visual": false,
        "motivo_fila_visual": null,
        "observacao": "Nível A. Campus com 6 registros PeeringDB (fac 7586/7587/7588/11686/11687/12197, HTL01-06), cluster de ~50 m entre si; usada a coordenada de HTL01 como ponto do campus (mesmo valor já citado como referência em ADR-005/sites_candidatos.csv). V4: colide com odata-hortolandia (~1.7 km, ver seção de colisões) — decisão: manter as duas AOIs ativas (operadores/campi distintos — Ascenty vs. ODATA/Aligned — no mesmo polo industrial de Hortolândia; buffer de 5 km cobre ambas sem perda de sinal agregado).",
        "v4_colisoes": "odata-hortolandia:1.686km",
        "v4_aprovado": true,
        "observacao_v4": "Colisão V4 com odata-hortolandia (1.686 km) — decidido manter ambas ativas (operadores/campi distintos no mesmo polo industrial; buffer de 5 km cobre as duas sem perda de sinal agregado). Ver observacao de cada AOI envolvida para o raciocínio completo.",
        "v5_aprovado": null,
        "v5_distancia_km": null
      },
      "geometry": {
        "type": "Point",
        "coordinates": [
          -47.179246,
          -22.896022
        ]
      }
    },
    {
      "type": "Feature",
      "properties": {
        "site_id": "ascenty-maracanau",
        "nome": "Ascenty Fortaleza 1",
        "operador": "Ascenty",
        "municipio": "Maracanaú",
        "uf": "CE",
        "lat": -3.830803,
        "lon": -38.611253,
        "buffer_km": 5,
        "fonte_coordenada": "https://www.peeringdb.com/api/fac/5140 (Ascenty FTZ01 - Fortaleza, PeeringDB fac id 5140, cidade='Maracanaú')",
        "ano_inicio_operacao_estimado": 2015,
        "ativo": true,
        "tier": 1,
        "regiao": "Nordeste",
        "bioma": "Caatinga",
        "metodo_coordenada": "peeringdb",
        "precisao_coordenada": "exata",
        "data_consulta": "2026-09-01",
        "ano_inicio_obra": 2014,
        "periodo_pre": "2011-2013",
        "periodo_durante": "2014-2015",
        "periodo_pos": "2016-2025",
        "n_predios": 1,
        "v1_aprovado": true,
        "v2_aprovado": true,
        "v2_municipio_geocodificado": "Maracanaú",
        "v3_nao_aplicavel": false,
        "v3_aprovado": true,
        "v3_pct_construida_solo_500m": 100.0,
        "v3_ano_mapbiomas": 2023,
        "fila_visual": false,
        "motivo_fila_visual": null,
        "observacao": "Nível A. Registro PeeringDB tem nome 'Fortaleza' mas cidade='Maracanaú' — mesmo valor já citado como referência primária em ADR-005/SV-24. Cross-validado por OSM way 1167125352 ('Ascenty Infraestrutura de Data Centers'), <10 m de distância — praticamente coordenada idêntica entre as duas fontes independentes. V4: nenhuma colisão com angonap-fortaleza (19.6 km de distância real, confirma a suspeita de ADR-005 de que os dois municípios cearenses ficam bem além do buffer de 5 km).",
        "v4_colisoes": null,
        "v4_aprovado": true,
        "v5_aprovado": null,
        "v5_distancia_km": null
      },
      "geometry": {
        "type": "Point",
        "coordinates": [
          -38.611253,
          -3.830803
        ]
      }
    },
    {
      "type": "Feature",
      "properties": {
        "site_id": "ascenty-osasco",
        "nome": "Ascenty São Paulo 3/4 (Osasco)",
        "operador": "Ascenty",
        "municipio": "Osasco",
        "uf": "SP",
        "lat": -23.492259,
        "lon": -46.777232,
        "buffer_km": 5,
        "fonte_coordenada": "https://www.peeringdb.com/api/fac/7579 (Ascenty SPO01 - São Paulo, PeeringDB fac id 7579)",
        "ano_inicio_operacao_estimado": 2020,
        "ativo": true,
        "tier": 1,
        "regiao": "Sudeste",
        "bioma": "Mata Atlântica",
        "metodo_coordenada": "peeringdb",
        "precisao_coordenada": "exata",
        "data_consulta": "2026-09-01",
        "ano_inicio_obra": 2020,
        "periodo_pre": "2017-2019",
        "periodo_durante": "2020-2023",
        "periodo_pos": "2024-2025",
        "n_predios": 2,
        "v1_aprovado": true,
        "v2_aprovado": true,
        "v2_municipio_geocodificado": "Osasco",
        "v3_nao_aplicavel": false,
        "v3_aprovado": true,
        "v3_pct_construida_solo_500m": 92.48,
        "v3_ano_mapbiomas": 2023,
        "fila_visual": false,
        "motivo_fila_visual": null,
        "observacao": "Nível A. Cluster de 4 registros PeeringDB (fac 7579/7580/7581/13720, SPO01-04) em Osasco SP, ~15 m entre si; usado SPO01. Cross-validado por OSM (ways 'Ascenty SP1/SP2/SP3/SP4', operador tag 'Digital Realty', mesmo cluster). V4: colide com scala-tambore (~3.7 km, ver seção de colisões) — decisão: manter ativas (campi de operadores distintos na Grande São Paulo; buffer de 5 km cobre ambas).",
        "v4_colisoes": "scala-tambore:3.667km",
        "v4_aprovado": true,
        "observacao_v4": "Colisão V4 com scala-tambore (3.667 km) — decidido manter ambas ativas (operadores/campi distintos no mesmo polo industrial; buffer de 5 km cobre as duas sem perda de sinal agregado). Ver observacao de cada AOI envolvida para o raciocínio completo.",
        "v5_aprovado": null,
        "v5_distancia_km": null
      },
      "geometry": {
        "type": "Point",
        "coordinates": [
          -46.777232,
          -23.492259
        ]
      }
    },
    {
      "type": "Feature",
      "properties": {
        "site_id": "ascenty-sumare",
        "nome": "Ascenty Sumaré (campus)",
        "operador": "Ascenty",
        "municipio": "Sumaré",
        "uf": "SP",
        "lat": -22.8069862,
        "lon": -47.2200481,
        "buffer_km": 5,
        "fonte_coordenada": "Nominatim https://nominatim.openstreetmap.org/search?q=Nova+Veneza,+Sumar%C3%A9,+SP,+Brazil (bairro citado no endereço do PeeringDB fac 7584/7585 'Ascenty SUM01/SUM02': 'Rod. Anhanguera, s/n Sumaré - SP - Parque das Industrias (Nova Veneza)')",
        "ano_inicio_operacao_estimado": 2017,
        "ativo": true,
        "tier": 1,
        "regiao": "Sudeste",
        "bioma": "Mata Atlântica",
        "metodo_coordenada": "geocode",
        "precisao_coordenada": "aproximada",
        "data_consulta": "2026-09-01",
        "ano_inicio_obra": 2017,
        "periodo_pre": "2014-2016",
        "periodo_durante": "2017-2019",
        "periodo_pos": "2020-2025",
        "n_predios": 2,
        "v1_aprovado": true,
        "v2_aprovado": true,
        "v2_municipio_geocodificado": "Sumaré",
        "v3_nao_aplicavel": false,
        "v3_aprovado": true,
        "v3_pct_construida_solo_500m": 95.21,
        "v3_ano_mapbiomas": 2023,
        "fila_visual": true,
        "motivo_fila_visual": "Precisão 'aproximada' (geocode de bairro, endereço-fonte 's/n'); AOI crítica para o critério de aceite 'era Landsat pré-2019' do tier 1. Imagem mostra o ponto perto da Rodovia Anhanguera, não claramente sobre um prédio único.",
        "observacao": "PeeringDB tem os registros (fac 7584 SUM01, fac 7585 SUM02, org 'Ascenty DataCenters e Telecom', cidade 'Sumaré SP') mas SEM lat/lon — endereço 's/n' (sem número) não geocodifica com precisão de edifício. Testados 3 candidatos Nominatim (rua, bairro, loteamento 'Parque das Indústrias'); usado o centróide do bairro 'Nova Veneza' (maior score de relevância, 0.229, entre os candidatos). V2 aprovou (reverse-geocode confirma município Sumaré). V3 aprovou com folga (95.2% construída+solo em 500 m). MESMO ASSIM incluída na fila de conferência visual por precaução: é uma das 2 únicas AOIs tier 1 com obra pré-2019 (critério de aceite do ADR-005), e a imagem de satélite (ver reports/figures/coordenadas/ascenty-sumare.png) mostra o ponto próximo à Rodovia Anhanguera mas não claramente sobre um único prédio grande — vale confirmação humana antes de comprometer orçamento de rotulagem manual nesta AOI específica.",
        "v4_colisoes": null,
        "v4_aprovado": true,
        "v5_aprovado": null,
        "v5_distancia_km": null
      },
      "geometry": {
        "type": "Point",
        "coordinates": [
          -47.2200481,
          -22.8069862
        ]
      }
    },
    {
      "type": "Feature",
      "properties": {
        "site_id": "ascenty-vinhedo",
        "nome": "Ascenty Vinhedo",
        "operador": "Ascenty",
        "municipio": "Vinhedo",
        "uf": "SP",
        "lat": -23.0700044,
        "lon": -47.0118926,
        "buffer_km": 5,
        "fonte_coordenada": "https://www.google.com/maps/place/Av.+Jo%C3%A3o+Batista+Nunes,+50+-+Distrito+Industrial+Benedito+Storani,+Vinhedo+-+SP,+13288-162/@-23.0700044,-47.0118926,17z",
        "ano_inicio_operacao_estimado": 2019,
        "ativo": true,
        "tier": 1,
        "regiao": "Sudeste",
        "bioma": "Mata Atlântica",
        "metodo_coordenada": "manual",
        "precisao_coordenada": "exata",
        "data_consulta": "2026-08-27",
        "ano_inicio_obra": 2019,
        "periodo_pre": "2016-2018",
        "periodo_durante": "2019-2020",
        "periodo_pos": "2021-2025",
        "n_predios": 2,
        "v1_aprovado": true,
        "v2_aprovado": true,
        "v2_municipio_geocodificado": "Vinhedo",
        "v3_nao_aplicavel": false,
        "v3_aprovado": true,
        "v3_pct_construida_solo_500m": 33.33,
        "v3_ano_mapbiomas": 2023,
        "fila_visual": false,
        "motivo_fila_visual": null,
        "observacao": "Cross-check SV-25 (cenário de teste 6 — conferência cruzada obrigatória): cascata A/B encontrou PeeringDB fac 7589/7590 (Ascenty VIN01/VIN02) sem lat/lon no registro, e OSM way 713810347 ('Ascenty') em -23.0700247,-47.0118315 — a 0.01 km da coordenada manual de produção (reverse-geocode confirma município 'Vinhedo'). PASSOU com folga o limite de 1 km do cenário 6 — o casamento de nome da cascata está correto; segue confiável para as demais 13 AOIs novas.",
        "v4_colisoes": null,
        "v4_aprovado": true,
        "v5_distancia_km": 0.115,
        "v5_aprovado": true
      },
      "geometry": {
        "type": "Point",
        "coordinates": [
          -47.0118926,
          -23.0700044
        ]
      }
    },
    {
      "type": "Feature",
      "properties": {
        "site_id": "clickip-manaus",
        "nome": "ClickIP Datacenters",
        "operador": "ClickIP Datacenters",
        "municipio": "Manaus",
        "uf": "AM",
        "lat": -3.055564,
        "lon": -59.989801,
        "buffer_km": 5,
        "fonte_coordenada": "https://www.peeringdb.com/api/fac/15825 (Click IP Data Centers - Manaus, PeeringDB fac id 15825)",
        "ano_inicio_operacao_estimado": 2024,
        "ativo": true,
        "tier": 1,
        "regiao": "Norte",
        "bioma": "Amazônia",
        "metodo_coordenada": "peeringdb",
        "precisao_coordenada": "exata",
        "data_consulta": "2026-09-01",
        "ano_inicio_obra": 2023,
        "periodo_pre": "2020-2022",
        "periodo_durante": "2023-2024",
        "periodo_pos": "2025-2025",
        "n_predios": 1,
        "v1_aprovado": true,
        "v2_aprovado": true,
        "v2_municipio_geocodificado": "Manaus",
        "v3_nao_aplicavel": false,
        "v3_aprovado": true,
        "v3_pct_construida_solo_500m": 98.35,
        "v3_ano_mapbiomas": 2023,
        "fila_visual": false,
        "motivo_fila_visual": null,
        "observacao": "Nível A. Cross-validado por OSM way 1331645888 ('ClickIP DataCenter', cidade 'Manaus'), 0.01 km de distância — coordenada praticamente idêntica entre as duas fontes independentes. Ressalva de pegada pequena (0.12 ha) já registrada em ADR-005/SV-24 e aprovada pelo usuário na aprovação do tier — não é um problema de coordenada, é uma característica física real da instalação.",
        "v4_colisoes": null,
        "v4_aprovado": true,
        "v5_aprovado": null,
        "v5_distancia_km": null
      },
      "geometry": {
        "type": "Point",
        "coordinates": [
          -59.989801,
          -3.055564
        ]
      }
    },
    {
      "type": "Feature",
      "properties": {
        "site_id": "equinix-santana-parnaiba",
        "nome": "Equinix SP5x/SP6 (Santana de Parnaíba)",
        "operador": "Equinix",
        "municipio": "Santana de Parnaíba",
        "uf": "SP",
        "lat": -23.460369,
        "lon": -46.859912,
        "buffer_km": 5,
        "fonte_coordenada": "https://www.peeringdb.com/api/fac/15047 (Equinix SP6 - São Paulo, PeeringDB fac id 15047)",
        "ano_inicio_operacao_estimado": 2021,
        "ativo": true,
        "tier": 1,
        "regiao": "Sudeste",
        "bioma": "Mata Atlântica",
        "metodo_coordenada": "peeringdb",
        "precisao_coordenada": "exata",
        "data_consulta": "2026-09-01",
        "ano_inicio_obra": 2020,
        "periodo_pre": "2017-2019",
        "periodo_durante": "2020-2021",
        "periodo_pos": "2022-2025",
        "n_predios": 2,
        "v1_aprovado": true,
        "v2_aprovado": true,
        "v2_municipio_geocodificado": "Santana de Parnaíba",
        "v3_nao_aplicavel": false,
        "v3_aprovado": true,
        "v3_pct_construida_solo_500m": 42.06,
        "v3_ano_mapbiomas": 2023,
        "fila_visual": false,
        "motivo_fila_visual": null,
        "observacao": "Nível A. Usado SP6 (fac 15047) em vez de SP5x (fac 14845, sem lat/lon no registro) porque ambos são o mesmo campus operacional em Santana de Parnaíba SP (confirmado por PeeringDB fac 4309 'Equinix SP3', também no mesmo campus, e por OSM ways 'Equinix SP3/SP5/SP6', cluster de ~500 m).",
        "v4_colisoes": null,
        "v4_aprovado": true,
        "v5_aprovado": null,
        "v5_distancia_km": null
      },
      "geometry": {
        "type": "Point",
        "coordinates": [
          -46.859912,
          -23.460369
        ]
      }
    },
    {
      "type": "Feature",
      "properties": {
        "site_id": "everest-goiania",
        "nome": "Everest Digital Data Center",
        "operador": "Everest Digital (Grupo Soluti)",
        "municipio": "Goiânia",
        "uf": "GO",
        "lat": -16.6915189,
        "lon": -49.2371899,
        "buffer_km": 5,
        "fonte_coordenada": "Nominatim https://nominatim.openstreetmap.org/search?q=Av.+Fued+Jos%C3%A9+Sebba,+700,+Jardim+Goi%C3%A1s,+Goi%C3%A2nia,+GO,+Brazil (endereço do PeeringDB fac 16750 'PIX Everest Digital', que não tem lat/lon no registro)",
        "ano_inicio_operacao_estimado": 2023,
        "ativo": true,
        "tier": 1,
        "regiao": "Centro-Oeste",
        "bioma": "Cerrado",
        "metodo_coordenada": "geocode",
        "precisao_coordenada": "aproximada",
        "data_consulta": "2026-09-01",
        "ano_inicio_obra": 2021,
        "periodo_pre": "2018-2020",
        "periodo_durante": "2021-2023",
        "periodo_pos": "2024-2025",
        "n_predios": 1,
        "v1_aprovado": true,
        "v2_aprovado": true,
        "v2_municipio_geocodificado": "Goiânia",
        "v3_nao_aplicavel": false,
        "v3_aprovado": true,
        "v3_pct_construida_solo_500m": 99.94,
        "v3_ano_mapbiomas": 2023,
        "fila_visual": true,
        "motivo_fila_visual": "Precisão 'aproximada' (geocode não resolveu ao número predial, 3 candidatos com importância idêntica); único candidato de Cerrado/Centro-Oeste do tier 1.",
        "observacao": "PeeringDB tem o registro (fac 16750, org 'Everest Digital', cidade 'Goiania GO') mas SEM lat/lon; o nome do fac ('PIX...') sugere um ponto de troca de tráfego hospedado no prédio, não necessariamente georreferenciado ao prédio-sede em si. Nominatim resolveu 3 candidatos com a MESMA importância (0.053) ao longo da Av. Fued José Sebba — não chegou ao nível de número predial 700; usado o 1º candidato retornado. V2 aprovou (reverse-geocode confirma Goiânia). V3 aprovou com folga (99.9% construída em 500 m — região urbana densa do Jardim Goiás). MESMO ASSIM incluída na fila de conferência visual por precaução: geocode de rua sem número resolvido, único candidato de Cerrado/Centro-Oeste do tier 1 — vale confirmação humana antes de comprometer orçamento de rotulagem manual.",
        "v4_colisoes": null,
        "v4_aprovado": true,
        "v5_aprovado": null,
        "v5_distancia_km": null
      },
      "geometry": {
        "type": "Point",
        "coordinates": [
          -49.2371899,
          -16.6915189
        ]
      }
    },
    {
      "type": "Feature",
      "properties": {
        "site_id": "odata-hortolandia",
        "nome": "ODATA Data Center SP02",
        "operador": "ODATA (Aligned Data Centers)",
        "municipio": "Hortolândia",
        "uf": "SP",
        "lat": -22.8995299,
        "lon": -47.1952611,
        "buffer_km": 5,
        "fonte_coordenada": "https://www.google.com/maps/place/ODATA+Data+Center+SP02/@-22.8995299,-47.1952611,17z",
        "ano_inicio_operacao_estimado": null,
        "ativo": true,
        "tier": 1,
        "regiao": "Sudeste",
        "bioma": "Mata Atlântica",
        "metodo_coordenada": "manual",
        "precisao_coordenada": "exata",
        "data_consulta": "2026-08-27",
        "ano_inicio_obra": null,
        "periodo_pre": null,
        "periodo_durante": null,
        "periodo_pos": null,
        "n_predios": 1,
        "v1_aprovado": true,
        "v2_aprovado": true,
        "v2_municipio_geocodificado": "Hortolândia",
        "v3_nao_aplicavel": false,
        "v3_aprovado": true,
        "v3_pct_construida_solo_500m": 76.09,
        "v3_ano_mapbiomas": 2023,
        "fila_visual": false,
        "motivo_fila_visual": null,
        "observacao": "Cross-check SV-25: PeeringDB fac 15093 (Odata DC SP02, Hortolândia SP) em -22.89953,-47.195261 (0.02 km da coordenada de produção) e OSM way 1385101584 ('Odata') em -22.9017352,-47.1939053 (0.28 km) — confirmação independente por 2 fontes.",
        "v4_colisoes": "ascenty-hortolandia:1.686km",
        "v4_aprovado": true,
        "observacao_v4": "Colisão V4 com ascenty-hortolandia (1.686 km) — decidido manter ambas ativas (operadores/campi distintos no mesmo polo industrial; buffer de 5 km cobre as duas sem perda de sinal agregado). Ver observacao de cada AOI envolvida para o raciocínio completo.",
        "v5_aprovado": null,
        "v5_distancia_km": null
      },
      "geometry": {
        "type": "Point",
        "coordinates": [
          -47.1952611,
          -22.8995299
        ]
      }
    },
    {
      "type": "Feature",
      "properties": {
        "site_id": "scala-sgigsm01",
        "nome": "Scala SGIGSM01",
        "operador": "Scala Data Centers",
        "municipio": "São João de Meriti",
        "uf": "RJ",
        "lat": -22.799883,
        "lon": -43.353842,
        "buffer_km": 5,
        "fonte_coordenada": "https://www.peeringdb.com/api/fac/13398 (Scala Data Centers SGIGSM01, PeeringDB fac id 13398)",
        "ano_inicio_operacao_estimado": 2023,
        "ativo": true,
        "tier": 1,
        "regiao": "Sudeste",
        "bioma": "Mata Atlântica",
        "metodo_coordenada": "peeringdb",
        "precisao_coordenada": "exata",
        "data_consulta": "2026-09-01",
        "ano_inicio_obra": 2022,
        "periodo_pre": "2019-2021",
        "periodo_durante": "2022-2023",
        "periodo_pos": "2024-2025",
        "n_predios": 1,
        "v1_aprovado": true,
        "v2_aprovado": true,
        "v2_municipio_geocodificado": "São João de Meriti",
        "v3_nao_aplicavel": false,
        "v3_aprovado": true,
        "v3_pct_construida_solo_500m": 100.0,
        "v3_ano_mapbiomas": 2023,
        "fila_visual": false,
        "motivo_fila_visual": null,
        "observacao": "Nível A — já citada como fonte em SV-24/ADR-005. Cross-validado por OSM way 770978294 ('Scala SGIGSM01', operador tag 'Scala Datacenters'), 0.5 km de distância.",
        "v4_colisoes": null,
        "v4_aprovado": true,
        "v5_distancia_km": 0.005,
        "v5_aprovado": true
      },
      "geometry": {
        "type": "Point",
        "coordinates": [
          -43.353842,
          -22.799883
        ]
      }
    },
    {
      "type": "Feature",
      "properties": {
        "site_id": "scala-spoapa01",
        "nome": "Scala SPOAPA01",
        "operador": "Scala Data Centers",
        "municipio": "Porto Alegre",
        "uf": "RS",
        "lat": -30.002768,
        "lon": -51.198149,
        "buffer_km": 5,
        "fonte_coordenada": "https://www.peeringdb.com/api/fac/14336 (Scala Data Centers SPOAPA01, PeeringDB fac id 14336)",
        "ano_inicio_operacao_estimado": 2023,
        "ativo": true,
        "tier": 1,
        "regiao": "Sul",
        "bioma": "Mata Atlântica",
        "metodo_coordenada": "peeringdb",
        "precisao_coordenada": "exata",
        "data_consulta": "2026-09-01",
        "ano_inicio_obra": 2023,
        "periodo_pre": "2020-2022",
        "periodo_durante": "2023-2023",
        "periodo_pos": "2024-2025",
        "n_predios": 1,
        "v1_aprovado": true,
        "v2_aprovado": true,
        "v2_municipio_geocodificado": "Porto Alegre",
        "v3_nao_aplicavel": false,
        "v3_aprovado": true,
        "v3_pct_construida_solo_500m": 100.0,
        "v3_ano_mapbiomas": 2023,
        "fila_visual": false,
        "motivo_fila_visual": null,
        "observacao": "Nível A — já citada como fonte em SV-24/ADR-005.",
        "v4_colisoes": null,
        "v4_aprovado": true,
        "v5_distancia_km": 0.006,
        "v5_aprovado": true
      },
      "geometry": {
        "type": "Point",
        "coordinates": [
          -51.198149,
          -30.002768
        ]
      }
    },
    {
      "type": "Feature",
      "properties": {
        "site_id": "scala-tambore",
        "nome": "Scala Data Centers - SGRUTB12",
        "operador": "Scala Data Centers",
        "municipio": "Barueri",
        "uf": "SP",
        "lat": -23.4948321,
        "lon": -46.8130769,
        "buffer_km": 5,
        "fonte_coordenada": "https://www.google.com/maps/place/Scala+Data+Centers+-+SGRUTB12/@-23.4948321,-46.8130769,17z",
        "ano_inicio_operacao_estimado": 2022,
        "ativo": true,
        "tier": 1,
        "regiao": "Sudeste",
        "bioma": "Mata Atlântica",
        "metodo_coordenada": "manual",
        "precisao_coordenada": "exata",
        "data_consulta": "2026-08-27",
        "ano_inicio_obra": 2021,
        "periodo_pre": "2018-2020",
        "periodo_durante": "2021-2023",
        "periodo_pos": "2024-2025",
        "n_predios": 6,
        "v1_aprovado": true,
        "v2_aprovado": true,
        "v2_municipio_geocodificado": "Barueri",
        "v3_nao_aplicavel": false,
        "v3_aprovado": true,
        "v3_pct_construida_solo_500m": 77.63,
        "v3_ano_mapbiomas": 2023,
        "fila_visual": false,
        "motivo_fila_visual": null,
        "observacao": "Cross-check SV-25: PeeringDB fac 14821 (Scala SGRUTB12, Tamboré SP) em -23.497787,-46.816241 (0.33 km) confirma o campus da Av. Ceci; outros prédios do mesmo campus (SGRUTB01/03/04/05/08) todos no mesmo cluster (~200-400 m entre si).",
        "v4_colisoes": "ascenty-osasco:3.667km",
        "v4_aprovado": true,
        "observacao_v4": "Colisão V4 com ascenty-osasco (3.667 km) — decidido manter ambas ativas (operadores/campi distintos no mesmo polo industrial; buffer de 5 km cobre as duas sem perda de sinal agregado). Ver observacao de cada AOI envolvida para o raciocínio completo.",
        "v5_aprovado": null,
        "v5_distancia_km": null
      },
      "geometry": {
        "type": "Point",
        "coordinates": [
          -46.8130769,
          -23.4948321
        ]
      }
    },
    {
      "type": "Feature",
      "properties": {
        "site_id": "ascenty-jundiai",
        "nome": "Ascenty Jundiaí 2",
        "operador": "Ascenty",
        "municipio": "Jundiaí",
        "uf": "SP",
        "lat": -23.191744,
        "lon": -46.974604,
        "buffer_km": 5,
        "fonte_coordenada": "https://www.peeringdb.com/api/fac/7582 (Ascenty JDI01 - Jundiaí, PeeringDB fac id 7582)",
        "ano_inicio_operacao_estimado": 2019,
        "ativo": true,
        "tier": 2,
        "regiao": "Sudeste",
        "bioma": "Mata Atlântica",
        "metodo_coordenada": "peeringdb",
        "precisao_coordenada": "exata",
        "data_consulta": "2026-09-01",
        "ano_inicio_obra": 2019,
        "periodo_pre": "2016-2018",
        "periodo_durante": "2019-2019",
        "periodo_pos": "2020-2025",
        "n_predios": 1,
        "v1_aprovado": true,
        "v2_aprovado": true,
        "v2_municipio_geocodificado": "Jundiaí",
        "v3_nao_aplicavel": false,
        "v3_aprovado": true,
        "v3_pct_construida_solo_500m": 80.01,
        "v3_ano_mapbiomas": 2023,
        "fila_visual": false,
        "motivo_fila_visual": null,
        "observacao": "Nível A. Cross-validado por OSM way 545983830 ('Subestação Ascenty-Jundiai'), 0.02 km de distância — coordenada praticamente idêntica entre as duas fontes independentes.",
        "v4_colisoes": null,
        "v4_aprovado": true,
        "v5_aprovado": null,
        "v5_distancia_km": null
      },
      "geometry": {
        "type": "Point",
        "coordinates": [
          -46.974604,
          -23.191744
        ]
      }
    },
    {
      "type": "Feature",
      "properties": {
        "site_id": "ascenty-paulinia",
        "nome": "Ascenty Paulínia 1",
        "operador": "Ascenty",
        "municipio": "Paulínia",
        "uf": "SP",
        "lat": -22.7974087,
        "lon": -47.1345476,
        "buffer_km": 5,
        "fonte_coordenada": "OSM way 993659689 ('Subestação Ascenty', Overpass API, consulta por nome de operador em todo o Brasil)",
        "ano_inicio_operacao_estimado": 2019,
        "ativo": true,
        "tier": 2,
        "regiao": "Sudeste",
        "bioma": "Mata Atlântica",
        "metodo_coordenada": "osm",
        "precisao_coordenada": "aproximada",
        "data_consulta": "2026-09-01",
        "ano_inicio_obra": 2019,
        "periodo_pre": "2016-2018",
        "periodo_durante": "2019-2019",
        "periodo_pos": "2020-2025",
        "n_predios": 1,
        "v1_aprovado": true,
        "v2_aprovado": true,
        "v2_municipio_geocodificado": "Paulínia",
        "v3_nao_aplicavel": false,
        "v3_aprovado": true,
        "v3_pct_construida_solo_500m": 72.33,
        "v3_ano_mapbiomas": 2023,
        "fila_visual": true,
        "motivo_fila_visual": "Precisão 'aproximada' (coordenada é de uma subestação associada, não do prédio confirmado; endereço-fonte 's/n').",
        "observacao": "PeeringDB tem o registro (fac 7591 PLN01, org 'Ascenty DataCenters e Telecom', cidade 'Paulínia SP') mas SEM lat/lon, só endereço 's/n'. Nível B usado em vez de Nível A: OSM tem um ativo nomeado 'Subestação Ascenty' (way 993659689) na região — é a subestação de energia associada ao campus, não necessariamente o prédio do data center em si, por isso classificada como precisão 'aproximada' (desvio deliberado da tabela do enunciado, que trata nível B como sempre 'exata' — aqui o ativo encontrado não é o prédio-alvo, é uma infraestrutura associada). Cross-validado por geocode Nominatim do endereço PeeringDB ('Rua Sebastião Cardoso, Paulínia, SP'): 2 candidatos de rua a 0.34-0.53 km da subestação — triangulação consistente. V2 aprovou (reverse-geocode confirma Paulínia). V3 aprovou com folga (72.3%). MESMO ASSIM incluída na fila de conferência visual por precaução (mesmo motivo estrutural de ascenty-sumare: fonte primária sem coordenada exata, só endereço 's/n').",
        "v4_colisoes": null,
        "v4_aprovado": true,
        "v5_aprovado": null,
        "v5_distancia_km": null
      },
      "geometry": {
        "type": "Point",
        "coordinates": [
          -47.1345476,
          -22.7974087
        ]
      }
    },
    {
      "type": "Feature",
      "properties": {
        "site_id": "hostdime-joao-pessoa",
        "nome": "HostDime Brazil (João Pessoa)",
        "operador": "HostDime",
        "municipio": "João Pessoa",
        "uf": "PB",
        "lat": -7.117382,
        "lon": -34.856902,
        "buffer_km": 5,
        "fonte_coordenada": "https://www.peeringdb.com/api/fac/5210 (HostDime JPA Brazil DataCenter, PeeringDB fac id 5210)",
        "ano_inicio_operacao_estimado": 2017,
        "ativo": true,
        "tier": 2,
        "regiao": "Nordeste",
        "bioma": "Mata Atlântica",
        "metodo_coordenada": "peeringdb",
        "precisao_coordenada": "exata",
        "data_consulta": "2026-09-01",
        "ano_inicio_obra": 2017,
        "periodo_pre": "2014-2016",
        "periodo_durante": "2017-2017",
        "periodo_pos": "2018-2025",
        "n_predios": 1,
        "v1_aprovado": true,
        "v2_aprovado": true,
        "v2_municipio_geocodificado": "João Pessoa",
        "v3_nao_aplicavel": false,
        "v3_aprovado": true,
        "v3_pct_construida_solo_500m": 100.0,
        "v3_ano_mapbiomas": 2023,
        "fila_visual": false,
        "motivo_fila_visual": null,
        "observacao": "Nível A — já citada como fonte em SV-24/ADR-005 (via página de referência do Notion, que também cita PeeringDB). Cross-validado por OSM node 2669226345 ('HostDime', addr:city='João Pessoa'), 0.05 km de distância.",
        "v4_colisoes": null,
        "v4_aprovado": true,
        "v5_aprovado": null,
        "v5_distancia_km": null
      },
      "geometry": {
        "type": "Point",
        "coordinates": [
          -34.856902,
          -7.117382
        ]
      }
    }
  ]
}